#dP2024  6 17  0  0  0.00000000      96 __u+U IGS20 EXT  IAC
## 2319  86400.00000000   900.00000000 60478 0.0000000000000
+   54   G02G03G04G05G06G07G08G09G10G11G12G13G14G15G16G17G18
+        G19G20G21G22G23G24G25G26G27G28G29G30G31G32R01R02R03
+        R04R05R07R08R09R11R12R13R14R15R16R17R18R19R20R21R22
+        R24R25R26  0  0  0  0  0  0  0  0  0  0  0  0  0  0
+          0  0  0  0  0  0  0  0  0  0  0  0  0  0  0  0  0
++         8  8  9  8  8  8  9  9  8  8  9  8  8 10  9  8  8
++         8  9  7  8  9  8  8  9  8  8 10  9  9  9  8  7  8
++         9  7  9  9  7  8  8  7  9  8  7  8  7  8  8  7  9
++         8  8  9  0  0  0  0  0  0  0  0  0  0  0  0  0  0
++         0  0  0  0  0  0  0  0  0  0  0  0  0  0  0  0  0
%c M  cc GPS ccc cccc cccc cccc cccc ccccc ccccc ccccc ccccc
%c cc cc ccc ccc cccc cccc cccc cccc ccccc ccccc ccccc ccccc
%f  0.0000000  0.000000000  0.00000000000  0.000000000000000
%f  0.0000000  0.000000000  0.00000000000  0.000000000000000
%i    0    0    0    0      0      0      0      0         0
%i    0    0    0    0      0      0      0      0         0
/* IAC                                ULTRA-RAPID PREDICTION
/* S/V CLOCKS ARE ALIGNED TO GNSS TIME                      
/* G:C1WC2W R:C1PC2P E:C1XC5X C:C2IC6I J:C1CC2S             
/* PCV:IGS20_2317 OL/AL:FES2004  NONE     YN ORB:CoN CLK:CoN
*  2024 06 17  5 30  0.00000000
PG02 -15050.901822 -13335.895484 -17027.336318   -416.236630
PG03 -12682.881837 -22270.522983   7053.285278    417.198751
PG04  -8078.829992 -13261.903621  21550.034109    384.875527
PG05   4387.398330  24911.205673   7774.140813   -176.599129
PG06 -20616.537197   6303.220247  15646.401296    214.071133
PG07 -26007.115671  -6357.093367   2010.049859    -90.949687
PG08    734.909273 -20280.399031 -17016.697404    233.479712
PG09 -17175.109163  -1320.372968  20147.642135    237.814128
PG10  13144.769202  -6503.268425 -21921.327488    -44.643612
PG11  -7738.738734  13475.573006  21556.580773   -687.107227
PG12  10155.861994  24019.938234   4889.806851   -514.764126
PG13 -10554.717021  20798.840144 -12690.617953    658.471433
PG14 -15477.170098   2387.590400 -21428.503145    427.324194
PG15   2105.947439  20525.546097 -17123.086500    171.026074
PG16   1058.365511 -24170.633024  10090.937124   -262.088431
PG17 -21324.090306  11078.985823 -11072.153716    693.354230
PG18  26047.392712   5717.822617    470.024534   -625.921765
PG19 -20496.347023  16251.945686  -3286.256065    497.552899
PG20  -1508.196822  20948.954763  16408.101642    373.753982
PG21 -10146.011927 -14671.381514 -19556.336844    114.938337
PG22 -11804.450273  11542.597884 -20450.596104    -28.307019
PG23  16643.691334   6517.215643 -19690.476595    252.227452
PG24  12765.910114  14889.739970 -18510.096083   -478.214232
PG25  15959.516126  16964.011993  12667.307950    497.446863
PG26   8932.504490 -15447.421044  19411.732823    135.653256
PG27  10851.387408 -22426.473319  -8857.848412    -28.482500
PG28  22142.048499  -6028.933737  13362.516333   -292.345380
PG29  15030.605148   5436.303044  21180.592792   -593.859654
PG30 -25081.589302   1874.400966  -8791.214338   -372.960617
PG31  13284.292997 -11546.332256  19789.028710   -227.349820
PG32  20359.512157 -13645.089899  -9766.891795   -615.970708
PR01 -12950.388044  11344.397543  18816.472647     88.641318
PR02 -10431.570126  22895.227955   4444.779067    -23.322621
PR03  -1413.547584  22098.764056 -12663.955347    102.235248
PR04   7731.879369   9185.410974 -22476.868350    241.463893
PR05  13010.034800  -8519.279803 -20200.450940    133.208636
PR07    899.562411 -21657.072417  13450.473499     84.730526
PR08  -8090.028679  -8862.897867  22565.736959     -5.056070
PR09   2957.305329 -12809.324183  21897.810283    192.656025
PR11 -18172.037363 -17357.443056  -4426.180058     21.160170
PR12 -15388.664726  -2954.909148 -20095.204776     41.408510
PR13  -5130.995874  10593.096390 -22638.117295    -48.421519
PR14  10701.734832  20241.314453 -11202.828126     26.598205
PR15  18382.258879  16602.943577   6094.188091     78.738982
PR16  15399.717264   3125.218291  20094.965060     26.557428
PR17   3304.275798  10177.023075  23157.869860     96.552124
PR18  18924.375886   4329.506825  16528.415980    147.417292
PR19  25229.323832  -2145.556057   3113.678196   -280.611919
PR20  16481.466852  -9848.564552 -16771.344862   -114.647857
PR21  -2797.459118 -10203.668589 -23215.538315   -109.929436
PR22 -19744.685922  -4528.177086 -15486.524241    101.703920
PR24 -15500.934457  11017.487148  16999.566382    -60.165693
PR25  -3202.723860 -10557.767738 -22996.746059    -61.669113
PR26  -7483.929101 -10172.637210  22187.693537     -6.139005
*  2024 06 17  5 45  0.00000000
PG02 -12930.862754 -13321.300541 -18632.644945   -416.230257
PG03 -12758.766373 -22950.249541   4253.824665    417.214827
PG04  -6449.736594 -15060.353917  20895.230290    384.882794
PG05   3760.270058  24025.828910  10395.399178   -176.600253
PG06 -22219.893901   5907.917596  13452.511703    214.051990
PG07 -25646.397934  -6548.005960   4782.611543    -90.940595
PG08   2000.017424 -21628.140934 -15099.593310    233.495974
PG09 -15800.181281  -3255.288161  21025.553745    237.827285
PG10  14077.710761  -4130.873338 -21945.709492    -44.651121
PG11 -10102.235119  12937.394763  20892.520895   -687.114409
PG12  10048.253111  24502.476022   2070.165012   -514.766960
PG13 -11633.165425  21532.358858 -10226.053381    658.473878
PG14 -16268.964822     81.990862 -20990.087481    427.332397
PG15   1029.775644  21964.813251 -15264.312735    171.029900
PG16   1680.688751 -22940.096857  12545.570968   -262.078899
PG17 -20488.762548   9871.488844 -13434.672113    693.349069
PG18  25801.769987   5878.828015   3329.850457   -625.926117
PG19 -20310.892969  15698.352494  -6111.959626    497.557743
PG20  -2662.778608  19355.779518  18121.266303    373.753615
PG21  -7787.764015 -14582.171675 -20561.797913    114.936075
PG22 -12541.247907   9191.853055 -21150.940023    -28.311424
PG23  17397.292928   8546.828766 -18227.073211    252.235707
PG24  10653.601423  14896.676832 -19788.396891   -478.216448
PG25  16257.638628  18303.953435  10283.156715    497.447335
PG26  10067.394146 -13413.620353  20371.224546    135.647585
PG27  11574.190858 -22918.307719  -6151.885922    -28.483686
PG28  23501.840056  -5651.437315  10997.622626   -292.360449
PG29  13377.900339   7260.734854  21723.045089   -593.858031
PG30 -25898.436883   1453.995776  -6180.317703   -372.955004
PG31  15453.948056 -11049.281265  18503.563072   -227.349575
PG32  19744.773491 -12482.063290 -12238.169858   -615.969614
PR01 -12221.710330   9029.960886  20484.500021     88.642367
PR02 -10043.964489  22249.731684   7553.502223    -23.322765
PR03  -1691.574109  23474.334818  -9858.938787    102.235861
PR04   6947.472984  11792.725400 -21497.183330    241.465508
PR05  12137.305707  -6087.028270 -21576.895558    133.209146
PR07   1212.560719 -23116.148973  10705.591195     84.731205
PR08  -7323.479896 -11466.632035  21630.386374     -5.056441
PR09   4861.734489 -10844.059440  22601.354573    192.657891
PR11 -18519.345031 -17512.538630  -1240.751785     21.159142
PR12 -17063.783833  -4644.579980 -18349.082890     41.408925
PR13  -7063.436537   8550.452151 -22978.806280    -48.421816
PR14   9703.927655  19050.675035 -13878.079619     26.598409
PR15  18852.890414  16923.193966   2953.297257     78.738658
PR16  17084.861664   4792.408061  18321.994387     26.557686
PR17    513.611058  10788.781116  23107.366207     96.555161
PR18  16769.642238   4639.051527  18640.981857    147.419014
PR19  24618.758066  -2258.230878   6291.583791   -280.613221
PR20  18351.806860 -10335.371052 -14360.397900   -114.648464
PR21      0.708097 -10797.833542 -23117.536593   -109.932305
PR22 -17706.625320  -4790.076970 -17708.542991    101.699612
PR24 -17385.373999  11542.290187  14665.633148    -60.167099
PR25   -409.337301 -11055.532941 -22984.081418    -61.697528
PR26  -6759.154042 -12737.200514  21069.164926     -6.138271
EOF
